start=new Date('2022-06-06T00:00:00.000Z').valueOf();
sats=[{"RA_OF_ASC_NODE":"245.4984","OBJECT_TYPE":"PAYLOAD","OBJECT_NAME":"STARLINK-2531","CLASSIFICATION_TYPE":"U","TIME_SYSTEM":"UTC","SITE":"AFETR","ARG_OF_PERICENTER":"45.5519","CENTER_NAME":"EARTH","COUNTRY_CODE":"US","EPOCH":"2022-06-05T15:18:20.968416","APOAPSIS":"548.651","ECCENTRICITY":"0.00020570","GP_ID":"205446505","ELEMENT_SET_NO":"999","BSTAR":"0.00006862400000","NORAD_CAT_ID":"48483","EPHEMERIS_TYPE":"0","MEAN_MOTION_DOT":"0.00000740","SEMIMAJOR_AXIS":"6925.362","MEAN_ANOMALY":"314.5637","PERIAPSIS":"545.802","OBJECT_ID":"2021-040BH","DECAY_DATE":null,"MEAN_ELEMENT_THEORY":"SGP4","TLE_LINE1":"1 48483U 21040BH  22156.63774269  .00000740  00000-0  68624-4 0  9995","MEAN_MOTION":"15.06395708","TLE_LINE2":"2 48483  53.0547 245.4984 0002057  45.5519 314.5637 15.06395708 59391","INCLINATION":"53.0547","RCS_SIZE":"LARGE","FILE":"3482995","REV_AT_EPOCH":"5939","MEAN_MOTION_DDOT":"0.0000000000000","PERIOD":"95.592","REF_FRAME":"TEME","LAUNCH_DATE":"2021-05-09"},{"BSTAR":"-0.00006317200000","NORAD_CAT_ID":"48484","EPHEMERIS_TYPE":"0","MEAN_MOTION_DOT":"-0.00001222","OBJECT_ID":"2021-040BJ","PERIAPSIS":"546.209","SEMIMAJOR_AXIS":"6925.350","MEAN_ANOMALY":"296.1430","TLE_LINE2":"2 48484  53.0559 246.0965 0001453  63.9708 296.1430 15.06399528 59383","INCLINATION":"53.0559","DECAY_DATE":null,"MEAN_ELEMENT_THEORY":"SGP4","TLE_LINE1":"1 48484U 21040BJ  22156.58248726 -.00001222  00000-0 -63172-4 0  9995","MEAN_MOTION":"15.06399528","PERIOD":"95.592","REF_FRAME":"TEME","LAUNCH_DATE":"2021-05-09","RCS_SIZE":"LARGE","FILE":"3482995","REV_AT_EPOCH":"5938","MEAN_MOTION_DDOT":"0.0000000000000","TIME_SYSTEM":"UTC","SITE":"AFETR","RA_OF_ASC_NODE":"246.0965","OBJECT_TYPE":"PAYLOAD","OBJECT_NAME":"STARLINK-2696","CLASSIFICATION_TYPE":"U","CENTER_NAME":"EARTH","COUNTRY_CODE":"US","ARG_OF_PERICENTER":"63.9708","EPOCH":"2022-06-05T13:58:46.899264","ELEMENT_SET_NO":"999","APOAPSIS":"548.221","ECCENTRICITY":"0.00014530","GP_ID":"205445254"},{"OBJECT_ID":"2021-040BK","PERIAPSIS":"546.144","MEAN_ANOMALY":"288.4240","SEMIMAJOR_AXIS":"6925.362","MEAN_MOTION_DOT":"0.00000385","EPHEMERIS_TYPE":"0","BSTAR":"0.00004474300000","NORAD_CAT_ID":"48485","REF_FRAME":"TEME","LAUNCH_DATE":"2021-05-09","PERIOD":"95.592","REV_AT_EPOCH":"5939","MEAN_MOTION_DDOT":"0.0000000000000","RCS_SIZE":"LARGE","FILE":"3482995","TLE_LINE2":"2 48485  53.0548 245.4647 0001564  71.6919 288.4240 15.06395547 59396","INCLINATION":"53.0548","MEAN_ELEMENT_THEORY":"SGP4","TLE_LINE1":"1 48485U 21040BK  22156.64510826  .00000385  00000-0  44743-4 0  9996","MEAN_MOTION":"15.06395547","DECAY_DATE":null,"COUNTRY_CODE":"US","CENTER_NAME":"EARTH","ARG_OF_PERICENTER":"71.6919","SITE":"AFETR","TIME_SYSTEM":"UTC","CLASSIFICATION_TYPE":"U","OBJECT_TYPE":"PAYLOAD","RA_OF_ASC_NODE":"245.4647","OBJECT_NAME":"STARLINK-2500","ELEMENT_SET_NO":"999","GP_ID":"205445504","APOAPSIS":"548.310","ECCENTRICITY":"0.00015640","EPOCH":"2022-06-05T15:28:57.353664"},{"OBJECT_ID":"2021-040BL","PERIAPSIS":"546.072","SEMIMAJOR_AXIS":"6925.341","MEAN_ANOMALY":"308.8326","NORAD_CAT_ID":"48486","BSTAR":"0.00011891000000","EPHEMERIS_TYPE":"0","MEAN_MOTION_DOT":"0.00001490","PERIOD":"95.592","LAUNCH_DATE":"2021-05-09","REF_FRAME":"TEME","FILE":"3482995","RCS_SIZE":"LARGE","REV_AT_EPOCH":"5939","MEAN_MOTION_DDOT":"0.0000000000000","INCLINATION":"53.0547","TLE_LINE2":"2 48486  53.0547 245.4355 0001637  51.2809 308.8326 15.06402448 59396","DECAY_DATE":null,"MEAN_MOTION":"15.06402448","TLE_LINE1":"1 48486U 21040BL  22156.64783580  .00001490  00000-0  11891-3 0  9991","MEAN_ELEMENT_THEORY":"SGP4","CENTER_NAME":"EARTH","COUNTRY_CODE":"US","ARG_OF_PERICENTER":"51.2809","TIME_SYSTEM":"UTC","SITE":"AFETR","OBJECT_NAME":"STARLINK-2496","OBJECT_TYPE":"PAYLOAD","RA_OF_ASC_NODE":"245.4355","CLASSIFICATION_TYPE":"U","ELEMENT_SET_NO":"999","ECCENTRICITY":"0.00016370","APOAPSIS":"548.340","GP_ID":"205446754","EPOCH":"2022-06-05T15:32:53.013120"},{"MEAN_MOTION_DDOT":"0.0000000000000","REV_AT_EPOCH":"5941","RCS_SIZE":"LARGE","FILE":"3482995","REF_FRAME":"TEME","LAUNCH_DATE":"2021-05-09","PERIOD":"95.592","MEAN_ELEMENT_THEORY":"SGP4","MEAN_MOTION":"15.06395668","TLE_LINE1":"1 48487U 21040BM  22156.71882635  .00000635  00000-0  61569-4 0  9999","DECAY_DATE":null,"TLE_LINE2":"2 48487  53.0534 245.1262 0001787  58.3380 301.7783 15.06395668 59412","INCLINATION":"53.0534","MEAN_ANOMALY":"301.7783","SEMIMAJOR_AXIS":"6925.362","PERIAPSIS":"545.989","OBJECT_ID":"2021-040BM","MEAN_MOTION_DOT":"0.00000635","EPHEMERIS_TYPE":"0","BSTAR":"0.00006156900000","NORAD_CAT_ID":"48487","GP_ID":"205447005","ECCENTRICITY":"0.00017870","APOAPSIS":"548.464","ELEMENT_SET_NO":"999","EPOCH":"2022-06-05T17:15:06.596640","ARG_OF_PERICENTER":"58.3380","COUNTRY_CODE":"US","CENTER_NAME":"EARTH","CLASSIFICATION_TYPE":"U","RA_OF_ASC_NODE":"245.1262","OBJECT_TYPE":"PAYLOAD","OBJECT_NAME":"STARLINK-2494","SITE":"AFETR","TIME_SYSTEM":"UTC"},{"ELEMENT_SET_NO":"999","GP_ID":"205445262","APOAPSIS":"548.353","ECCENTRICITY":"0.00016280","EPOCH":"2022-06-05T18:17:28.346496","COUNTRY_CODE":"US","CENTER_NAME":"EARTH","ARG_OF_PERICENTER":"62.3486","SITE":"AFETR","TIME_SYSTEM":"UTC","CLASSIFICATION_TYPE":"U","OBJECT_NAME":"STARLINK-2063","RA_OF_ASC_NODE":"174.9360","OBJECT_TYPE":"PAYLOAD","LAUNCH_DATE":"2021-05-15","REF_FRAME":"TEME","PERIOD":"95.592","MEAN_MOTION_DDOT":"0.0000000000000","REV_AT_EPOCH":"5827","FILE":"3482995","RCS_SIZE":"LARGE","INCLINATION":"53.0528","TLE_LINE2":"2 48553  53.0528 174.9360 0001628  62.3486 297.7668 15.06396112 58277","TLE_LINE1":"1 48553U 21041A   22156.76213364  .00001107  00000-0  93204-4 0  9992","MEAN_MOTION":"15.06396112","MEAN_ELEMENT_THEORY":"SGP4","DECAY_DATE":null,"OBJECT_ID":"2021-041A","PERIAPSIS":"546.098","MEAN_ANOMALY":"297.7668","SEMIMAJOR_AXIS":"6925.360","MEAN_MOTION_DOT":"0.00001107","EPHEMERIS_TYPE":"0","NORAD_CAT_ID":"48553","BSTAR":"0.00009320400000"},{"TLE_LINE2":"2 48554  53.0544 174.9063 0001202  86.8530 273.2596 15.06394210 58271","INCLINATION":"53.0544","DECAY_DATE":null,"MEAN_ELEMENT_THEORY":"SGP4","MEAN_MOTION":"15.06394210","TLE_LINE1":"1 48554U 21041B   22156.76951544 -.00000804  00000-0 -35104-4 0  9992","PERIOD":"95.593","REF_FRAME":"TEME","LAUNCH_DATE":"2021-05-15","RCS_SIZE":"LARGE","FILE":"3482995","REV_AT_EPOCH":"5827","MEAN_MOTION_DDOT":"0.0000000000000","BSTAR":"-0.00003510400000","NORAD_CAT_ID":"48554","MEAN_MOTION_DOT":"-0.00000804","EPHEMERIS_TYPE":"0","OBJECT_ID":"2021-041B","PERIAPSIS":"546.399","SEMIMAJOR_AXIS":"6925.366","MEAN_ANOMALY":"273.2596","EPOCH":"2022-06-05T18:28:06.134016","ELEMENT_SET_NO":"999","APOAPSIS":"548.064","ECCENTRICITY":"0.00012020","GP_ID":"205445512","TIME_SYSTEM":"UTC","SITE":"AFETR","OBJECT_TYPE":"PAYLOAD","RA_OF_ASC_NODE":"174.9063","OBJECT_NAME":"STARLINK-2139","CLASSIFICATION_TYPE":"U","CENTER_NAME":"EARTH","COUNTRY_CODE":"US","ARG_OF_PERICENTER":"86.8530"},{"PERIAPSIS":"545.813","OBJECT_ID":"2021-041C","MEAN_ANOMALY":"308.2559","SEMIMAJOR_AXIS":"6925.370","EPHEMERIS_TYPE":"0","MEAN_MOTION_DOT":"-0.00001016","BSTAR":"-0.00004928100000","NORAD_CAT_ID":"48555","REF_FRAME":"TEME","LAUNCH_DATE":"2021-05-15","PERIOD":"95.593","REV_AT_EPOCH":"5813","MEAN_MOTION_DDOT":"0.0000000000000","RCS_SIZE":"LARGE","FILE":"3482995","TLE_LINE2":"2 48555  53.0538 184.7736 0002054  51.8615 308.2559 15.06392907 58137","INCLINATION":"53.0538","MEAN_ELEMENT_THEORY":"SGP4","MEAN_MOTION":"15.06392907","TLE_LINE1":"1 48555U 21041C   22156.79808115 -.00001016  00000-0 -49281-4 0  9998","DECAY_DATE":null,"COUNTRY_CODE":"US","CENTER_NAME":"EARTH","ARG_OF_PERICENTER":"51.8615","SITE":"AFETR","TIME_SYSTEM":"UTC","CLASSIFICATION_TYPE":"U","OBJECT_TYPE":"PAYLOAD","RA_OF_ASC_NODE":"184.7736","OBJECT_NAME":"STARLINK-2145","ELEMENT_SET_NO":"999","GP_ID":"205446762","APOAPSIS":"548.658","ECCENTRICITY":"0.00020540","EPOCH":"2022-06-05T19:09:14.211360"},{"EPOCH":"2022-06-05T18:53:18.399264","ELEMENT_SET_NO":"999","GP_ID":"205447013","APOAPSIS":"548.323","ECCENTRICITY":"0.00015760","SITE":"AFETR","TIME_SYSTEM":"UTC","CLASSIFICATION_TYPE":"U","RA_OF_ASC_NODE":"184.8298","OBJECT_TYPE":"PAYLOAD","OBJECT_NAME":"STARLINK-2151","COUNTRY_CODE":"US","CENTER_NAME":"EARTH","ARG_OF_PERICENTER":"57.0674","TLE_LINE2":"2 48556  53.0542 184.8298 0001576  57.0674 303.0466 15.06394219 58136","INCLINATION":"53.0542","MEAN_ELEMENT_THEORY":"SGP4","MEAN_MOTION":"15.06394219","TLE_LINE1":"1 48556U 21041D   22156.78701851 -.00000535  00000-0 -17030-4 0  9999","DECAY_DATE":null,"REF_FRAME":"TEME","LAUNCH_DATE":"2021-05-15","PERIOD":"95.593","MEAN_MOTION_DDOT":"0.0000000000000","REV_AT_EPOCH":"5813","RCS_SIZE":"LARGE","FILE":"3482995","MEAN_MOTION_DOT":"-0.00000535","EPHEMERIS_TYPE":"0","BSTAR":"-0.00001703000000","NORAD_CAT_ID":"48556","PERIAPSIS":"546.140","OBJECT_ID":"2021-041D","MEAN_ANOMALY":"303.0466","SEMIMAJOR_AXIS":"6925.366"},{"ELEMENT_SET_NO":"999","ECCENTRICITY":"0.00014100","APOAPSIS":"548.210","GP_ID":"205445762","EPOCH":"2022-06-05T12:37:46.560576","CENTER_NAME":"EARTH","COUNTRY_CODE":"US","ARG_OF_PERICENTER":"60.2933","TIME_SYSTEM":"UTC","SITE":"AFETR","OBJECT_TYPE":"PAYLOAD","RA_OF_ASC_NODE":"175.9956","OBJECT_NAME":"STARLINK-2155","CLASSIFICATION_TYPE":"U","PERIOD":"95.593","REF_FRAME":"TEME","LAUNCH_DATE":"2021-05-15","RCS_SIZE":"LARGE","FILE":"3482995","REV_AT_EPOCH":"5823","MEAN_MOTION_DDOT":"0.0000000000000","TLE_LINE2":"2 48557  53.0531 175.9956 0001410  60.2933 299.8197 15.06393537 58234","INCLINATION":"53.0531","DECAY_DATE":null,"MEAN_ELEMENT_THEORY":"SGP4","MEAN_MOTION":"15.06393537","TLE_LINE1":"1 48557U 21041E   22156.52623334 -.00000881  00000-0 -40233-4 0  9996","PERIAPSIS":"546.257","OBJECT_ID":"2021-041E","SEMIMAJOR_AXIS":"6925.368","MEAN_ANOMALY":"299.8197","BSTAR":"-0.00004023300000","NORAD_CAT_ID":"48557","MEAN_MOTION_DOT":"-0.00000881","EPHEMERIS_TYPE":"0"}];
